[{"OBJECT_NAME":"STARLINK-5705","OBJECT_ID":"2023-015Z","EPOCH":"2026-03-09T01:38:50.425152","MEAN_MOTION":15.02533941,"ECCENTRICITY":0.00013205,"INCLINATION":43.0045,"RA_OF_ASC_NODE":316.9573,"ARG_OF_PERICENTER":270.2047,"MEAN_ANOMALY":89.8644,"EPHEMERIS_TYPE":0,"CLASSIFICATION_TYPE":"U","NORAD_CAT_ID":55472,"ELEMENT_SET_NO":999,"REV_AT_EPOCH":17080,"BSTAR":2.484935e-6,"MEAN_MOTION_DOT":-1.7e-6,"MEAN_MOTION_DDOT":0},{"OBJECT_NAME":"SS 1","OBJECT_ID":"1977-112D","EPOCH":"2026-03-09T21:40:15.039840","MEAN_MOTION":13.90217134,"ECCENTRICITY":0.05251109,"INCLINATION":63.3361,"RA_OF_ASC_NODE":274.0361,"ARG_OF_PERICENTER":161.1049,"MEAN_ANOMALY":201.0326,"EPHEMERIS_TYPE":0,"CLASSIFICATION_TYPE":"U","NORAD_CAT_ID":10529,"ELEMENT_SET_NO":999,"REV_AT_EPOCH":33839,"BSTAR":0.00031610815,"MEAN_MOTION_DOT":1.081e-5,"MEAN_MOTION_DDOT":0}]
